start=new Date('2021-09-07T00:00:00.000Z').valueOf();
sats=[{"TLE_LINE1":"1 47790U 21018D   21249.81363998  .00005792  00000-0  20469-3 0  9991","EPHEMERIS_TYPE":"0","COUNTRY_CODE":"US","APOAPSIS":"475.031","TLE_LINE2":"2 47790  53.0538  53.0309 0001708  63.9190 296.1985 15.30654364 29005","ARG_OF_PERICENTER":"63.9190","ELEMENT_SET_NO":"999","NORAD_CAT_ID":"47790","RCS_SIZE":"LARGE","MEAN_MOTION_DDOT":"0.0000000000000","OBJECT_TYPE":"PAYLOAD","TIME_SYSTEM":"UTC","PERIOD":"94.077","CLASSIFICATION_TYPE":"U","REF_FRAME":"TEME","BSTAR":"0.00020469000000","MEAN_ANOMALY":"296.1985","SITE":"AFETR","OBJECT_ID":"2021-018D","FILE":"3109923","MEAN_MOTION_DOT":"0.00005792","PERIAPSIS":"472.690","CENTER_NAME":"EARTH","OBJECT_NAME":"STARLINK-2319","MEAN_ELEMENT_THEORY":"SGP4","INCLINATION":"53.0538","ECCENTRICITY":"0.00017080","GP_ID":"184225232","LAUNCH_DATE":"2021-03-11","REV_AT_EPOCH":"2900","RA_OF_ASC_NODE":"53.0309","MEAN_MOTION":"15.30654364","EPOCH":"2021-09-06T19:31:38.494272","SEMIMAJOR_AXIS":"6851.996","DECAY_DATE":null},{"NORAD_CAT_ID":"47791","TLE_LINE2":"2 47791  53.0615  75.7164 0002862  76.7472 283.3837 15.06390104 28688","ARG_OF_PERICENTER":"76.7472","ELEMENT_SET_NO":"999","APOAPSIS":"549.226","COUNTRY_CODE":"US","EPHEMERIS_TYPE":"0","TLE_LINE1":"1 47791U 21018E   21249.81722653 -.00001113  00000-0 -55804-4 0  9996","FILE":"3109923","SITE":"AFETR","OBJECT_ID":"2021-018E","BSTAR":"-0.00005580400000","MEAN_ANOMALY":"283.3837","REF_FRAME":"TEME","CLASSIFICATION_TYPE":"U","PERIOD":"95.593","OBJECT_TYPE":"PAYLOAD","TIME_SYSTEM":"UTC","RCS_SIZE":"LARGE","MEAN_MOTION_DDOT":"0.0000000000000","ECCENTRICITY":"0.00028620","GP_ID":"184224983","INCLINATION":"53.0615","MEAN_ELEMENT_THEORY":"SGP4","CENTER_NAME":"EARTH","PERIAPSIS":"545.262","OBJECT_NAME":"STARLINK-2322","MEAN_MOTION_DOT":"-0.00001113","DECAY_DATE":null,"EPOCH":"2021-09-06T19:36:48.372192","SEMIMAJOR_AXIS":"6925.379","REV_AT_EPOCH":"2868","RA_OF_ASC_NODE":"75.7164","MEAN_MOTION":"15.06390104","LAUNCH_DATE":"2021-03-11"},{"LAUNCH_DATE":"2021-03-11","DECAY_DATE":null,"SEMIMAJOR_AXIS":"6925.351","EPOCH":"2021-09-06T21:30:54.922464","MEAN_MOTION":"15.06399073","REV_AT_EPOCH":"2897","RA_OF_ASC_NODE":"55.3729","OBJECT_NAME":"STARLINK-2334","CENTER_NAME":"EARTH","PERIAPSIS":"545.875","MEAN_MOTION_DOT":"-0.00000946","GP_ID":"184226234","ECCENTRICITY":"0.00019370","INCLINATION":"53.0569","MEAN_ELEMENT_THEORY":"SGP4","REF_FRAME":"TEME","PERIOD":"95.592","CLASSIFICATION_TYPE":"U","TIME_SYSTEM":"UTC","OBJECT_TYPE":"PAYLOAD","RCS_SIZE":"LARGE","MEAN_MOTION_DDOT":"0.0000000000000","FILE":"3109923","OBJECT_ID":"2021-018F","SITE":"AFETR","MEAN_ANOMALY":"255.8654","BSTAR":"-0.00004462100000","APOAPSIS":"548.558","COUNTRY_CODE":"US","TLE_LINE1":"1 47792U 21018F   21249.89646901 -.00000946  00000-0 -44621-4 0  9994","EPHEMERIS_TYPE":"0","NORAD_CAT_ID":"47792","ELEMENT_SET_NO":"999","TLE_LINE2":"2 47792  53.0569  55.3729 0001937 104.2550 255.8654 15.06399073 28971","ARG_OF_PERICENTER":"104.2550"},{"OBJECT_NAME":"STARLINK-2338","CENTER_NAME":"EARTH","PERIAPSIS":"545.887","MEAN_MOTION_DOT":"-0.00001076","GP_ID":"184225985","ECCENTRICITY":"0.00019560","INCLINATION":"53.0561","MEAN_ELEMENT_THEORY":"SGP4","LAUNCH_DATE":"2021-03-11","DECAY_DATE":null,"SEMIMAJOR_AXIS":"6925.377","EPOCH":"2021-09-06T18:41:04.336224","MEAN_MOTION":"15.06390799","RA_OF_ASC_NODE":"55.8971","REV_AT_EPOCH":"2894","APOAPSIS":"548.596","COUNTRY_CODE":"US","TLE_LINE1":"1 47793U 21018G   21249.77852241 -.00001076  00000-0 -53320-4 0  9999","EPHEMERIS_TYPE":"0","NORAD_CAT_ID":"47793","ELEMENT_SET_NO":"999","ARG_OF_PERICENTER":"110.4037","TLE_LINE2":"2 47793  53.0561  55.8971 0001956 110.4037 249.7163 15.06390799 28948","REF_FRAME":"TEME","CLASSIFICATION_TYPE":"U","PERIOD":"95.593","TIME_SYSTEM":"UTC","OBJECT_TYPE":"PAYLOAD","RCS_SIZE":"LARGE","MEAN_MOTION_DDOT":"0.0000000000000","FILE":"3109923","OBJECT_ID":"2021-018G","SITE":"AFETR","MEAN_ANOMALY":"249.7163","BSTAR":"-0.00005332000000"},{"REV_AT_EPOCH":"2896","RA_OF_ASC_NODE":"55.5876","MEAN_MOTION":"15.06388469","EPOCH":"2021-09-06T20:21:55.102752","SEMIMAJOR_AXIS":"6925.384","DECAY_DATE":null,"LAUNCH_DATE":"2021-03-11","MEAN_ELEMENT_THEORY":"SGP4","INCLINATION":"53.0577","ECCENTRICITY":"0.00016900","GP_ID":"184224733","MEAN_MOTION_DOT":"-0.00001223","CENTER_NAME":"EARTH","PERIAPSIS":"546.079","OBJECT_NAME":"STARLINK-2341","BSTAR":"-0.00006325300000","MEAN_ANOMALY":"246.2902","SITE":"AFETR","OBJECT_ID":"2021-018H","FILE":"3109923","MEAN_MOTION_DDOT":"0.0000000000000","RCS_SIZE":"LARGE","OBJECT_TYPE":"PAYLOAD","TIME_SYSTEM":"UTC","PERIOD":"95.593","CLASSIFICATION_TYPE":"U","REF_FRAME":"TEME","ARG_OF_PERICENTER":"113.8265","TLE_LINE2":"2 47794  53.0577  55.5876 0001690 113.8265 246.2902 15.06388469 28968","ELEMENT_SET_NO":"999","NORAD_CAT_ID":"47794","TLE_LINE1":"1 47794U 21018H   21249.84855443 -.00001223  00000-0 -63253-4 0  9995","EPHEMERIS_TYPE":"0","COUNTRY_CODE":"US","APOAPSIS":"548.419"},{"DECAY_DATE":null,"MEAN_MOTION":"15.06394298","REV_AT_EPOCH":"2901","RA_OF_ASC_NODE":"55.6332","SEMIMAJOR_AXIS":"6925.366","EPOCH":"2021-09-06T20:05:59.118720","LAUNCH_DATE":"2021-03-11","GP_ID":"184225483","ECCENTRICITY":"0.00017720","MEAN_ELEMENT_THEORY":"SGP4","INCLINATION":"53.0565","OBJECT_NAME":"STARLINK-2347","PERIAPSIS":"546.004","CENTER_NAME":"EARTH","MEAN_MOTION_DOT":"0.00000790","FILE":"3109923","MEAN_ANOMALY":"247.5547","BSTAR":"0.00007194500000","OBJECT_ID":"2021-018J","SITE":"AFETR","PERIOD":"95.593","CLASSIFICATION_TYPE":"U","REF_FRAME":"TEME","MEAN_MOTION_DDOT":"0.0000000000000","RCS_SIZE":"LARGE","TIME_SYSTEM":"UTC","OBJECT_TYPE":"PAYLOAD","NORAD_CAT_ID":"47795","ELEMENT_SET_NO":"999","ARG_OF_PERICENTER":"112.5630","TLE_LINE2":"2 47795  53.0565  55.6332 0001772 112.5630 247.5547 15.06394298 29010","COUNTRY_CODE":"US","APOAPSIS":"548.458","TLE_LINE1":"1 47795U 21018J   21249.83748980  .00000790  00000-0  71945-4 0  9995","EPHEMERIS_TYPE":"0"},{"GP_ID":"184225735","ECCENTRICITY":"0.00019130","MEAN_ELEMENT_THEORY":"SGP4","INCLINATION":"53.0574","OBJECT_NAME":"STARLINK-2373","CENTER_NAME":"EARTH","PERIAPSIS":"545.891","MEAN_MOTION_DOT":"-0.00001012","DECAY_DATE":null,"MEAN_MOTION":"15.06399240","RA_OF_ASC_NODE":"55.5698","REV_AT_EPOCH":"2896","SEMIMAJOR_AXIS":"6925.351","EPOCH":"2021-09-06T20:27:13.269888","LAUNCH_DATE":"2021-03-11","NORAD_CAT_ID":"47796","ELEMENT_SET_NO":"999","TLE_LINE2":"2 47796  53.0574  55.5698 0001913 117.5823 242.5360 15.06399240 28964","ARG_OF_PERICENTER":"117.5823","COUNTRY_CODE":"US","APOAPSIS":"548.541","TLE_LINE1":"1 47796U 21018K   21249.85223692 -.00001012  00000-0 -49070-4 0  9990","EPHEMERIS_TYPE":"0","FILE":"3109923","MEAN_ANOMALY":"242.5360","BSTAR":"-0.00004907000000","OBJECT_ID":"2021-018K","SITE":"AFETR","PERIOD":"95.592","CLASSIFICATION_TYPE":"U","REF_FRAME":"TEME","RCS_SIZE":"LARGE","MEAN_MOTION_DDOT":"0.0000000000000","TIME_SYSTEM":"UTC","OBJECT_TYPE":"PAYLOAD"},{"FILE":"3109923","OBJECT_ID":"2021-018L","SITE":"AFETR","MEAN_ANOMALY":"277.8385","BSTAR":"0.00004421400000","REF_FRAME":"TEME","PERIOD":"95.592","CLASSIFICATION_TYPE":"U","OBJECT_TYPE":"PAYLOAD","TIME_SYSTEM":"UTC","MEAN_MOTION_DDOT":"0.0000000000000","RCS_SIZE":"LARGE","NORAD_CAT_ID":"47797","ELEMENT_SET_NO":"999","TLE_LINE2":"2 47797  53.0547  80.4021 0002131  82.2846 277.8385 15.06402774 28615","ARG_OF_PERICENTER":"82.2846","APOAPSIS":"548.681","COUNTRY_CODE":"US","EPHEMERIS_TYPE":"0","TLE_LINE1":"1 47797U 21018L   21249.88863194  .00000377  00000-0  44214-4 0  9997","DECAY_DATE":null,"SEMIMAJOR_AXIS":"6925.340","EPOCH":"2021-09-06T21:19:37.799616","MEAN_MOTION":"15.06402774","RA_OF_ASC_NODE":"80.4021","REV_AT_EPOCH":"2861","LAUNCH_DATE":"2021-03-11","GP_ID":"184226485","ECCENTRICITY":"0.00021310","INCLINATION":"53.0547","MEAN_ELEMENT_THEORY":"SGP4","OBJECT_NAME":"STARLINK-2377","CENTER_NAME":"EARTH","PERIAPSIS":"545.729","MEAN_MOTION_DOT":"0.00000377"},{"DECAY_DATE":null,"MEAN_MOTION":"15.06401970","REV_AT_EPOCH":"2896","RA_OF_ASC_NODE":"55.5168","SEMIMAJOR_AXIS":"6925.343","EPOCH":"2021-09-06T20:43:08.907456","LAUNCH_DATE":"2021-03-11","GP_ID":"184225233","ECCENTRICITY":"0.00019250","MEAN_ELEMENT_THEORY":"SGP4","INCLINATION":"53.0562","OBJECT_NAME":"STARLINK-2379","CENTER_NAME":"EARTH","PERIAPSIS":"545.874","MEAN_MOTION_DOT":"-0.00000397","FILE":"3109923","MEAN_ANOMALY":"250.7424","BSTAR":"-0.00000771620000","OBJECT_ID":"2021-018M","SITE":"AFETR","CLASSIFICATION_TYPE":"U","PERIOD":"95.592","REF_FRAME":"TEME","RCS_SIZE":"LARGE","MEAN_MOTION_DDOT":"0.0000000000000","OBJECT_TYPE":"PAYLOAD","TIME_SYSTEM":"UTC","NORAD_CAT_ID":"47798","ELEMENT_SET_NO":"999","TLE_LINE2":"2 47798  53.0562  55.5168 0001925 109.3773 250.7424 15.06401970 28967","ARG_OF_PERICENTER":"109.3773","COUNTRY_CODE":"US","APOAPSIS":"548.541","TLE_LINE1":"1 47798U 21018M   21249.86329754 -.00000397  00000-0 -77162-5 0  9998","EPHEMERIS_TYPE":"0"},{"NORAD_CAT_ID":"47799","ELEMENT_SET_NO":"999","TLE_LINE2":"2 47799  53.0576  55.5382 0001964 111.9614 248.1584 15.06399280 28954","ARG_OF_PERICENTER":"111.9614","COUNTRY_CODE":"US","APOAPSIS":"548.576","EPHEMERIS_TYPE":"0","TLE_LINE1":"1 47799U 21018N   21249.85961412 -.00000905  00000-0 -41863-4 0  9994","FILE":"3109923","MEAN_ANOMALY":"248.1584","BSTAR":"-0.00004186300000","OBJECT_ID":"2021-018N","SITE":"AFETR","PERIOD":"95.592","CLASSIFICATION_TYPE":"U","REF_FRAME":"TEME","MEAN_MOTION_DDOT":"0.0000000000000","RCS_SIZE":"LARGE","OBJECT_TYPE":"PAYLOAD","TIME_SYSTEM":"UTC","GP_ID":"184224984","ECCENTRICITY":"0.00019640","MEAN_ELEMENT_THEORY":"SGP4","INCLINATION":"53.0576","OBJECT_NAME":"STARLINK-2380","CENTER_NAME":"EARTH","PERIAPSIS":"545.856","MEAN_MOTION_DOT":"-0.00000905","DECAY_DATE":null,"MEAN_MOTION":"15.06399280","RA_OF_ASC_NODE":"55.5382","REV_AT_EPOCH":"2895","SEMIMAJOR_AXIS":"6925.351","EPOCH":"2021-09-06T20:37:50.659968","LAUNCH_DATE":"2021-03-11"}];
